     2.100          NAVIGATION                              RINEX VERSION / TYPE
fic2rin                                 09/06/2011 00:06:29 PGM / RUN BY / DATE
                                                            END OF HEADER
29 11  9  5 10  0  0.0  .237198080868D-03  .329691829393D-11  .000000000000D+00
     .220000000000D+02 -.245625000000D+02  .447947230229D-08  .101159436663D+01
    -.138953328133D-05  .226690387353D-02  .847317278385D-05  .515373365593D+04
     .122400000000D+06  .372529029846D-08  .252844768416D+01 -.875443220139D-07
     .962320276502D+00  .217718750000D+03 -.116623654753D+01 -.796961768085D-08
     .233224000430D-09  .100000000000D+01  .165200000000D+04  .000000000000D+00
     .240000000000D+01  .000000000000D+00 -.931322574615D-08  .220000000000D+02
     .115206000000D+06  .400000000000D+01
30 11  9  5 10  0  0.0  .890507362783D-04 -.443378667114D-11  .000000000000D+00
     .540000000000D+02 -.670625000000D+02  .465555106525D-08 -.779596644301D+00
    -.347942113876D-05  .117500080960D-01  .694580376148D-05  .515544042969D+04
     .122400000000D+06 -.165775418282D-06  .134008409691D+01  .596046447754D-07
     .956302688794D+00  .242312500000D+03  .157376364107D+01 -.837213444729D-08
    -.457161899771D-10  .100000000000D+01  .165200000000D+04  .000000000000D+00
     .240000000000D+01  .000000000000D+00 -.419095158577D-08  .540000000000D+02
     .115206000000D+06  .400000000000D+01
31 11  9  5 10  0  0.0  .136875081807D-03  .557065504836D-11  .000000000000D+00
     .420000000000D+02 -.183750000000D+02  .421696136765D-08  .171526631310D+01
    -.957399606705D-06  .762589962687D-02  .367313623428D-05  .515373066521D+04
     .122400000000D+06  .108033418655D-06  .406114044874D+00 -.577419996262D-07
     .980344503946D+00  .313125000000D+03 -.953211951047D+00 -.801854829044D-08
    -.181078971237D-09  .100000000000D+01  .165200000000D+04  .000000000000D+00
     .240000000000D+01  .000000000000D+00 -.130385160446D-07  .420000000000D+02
     .115206000000D+06  .400000000000D+01
32 11  9  5 10  0  0.0 -.323308166116D-03 -.670752342558D-11  .000000000000D+00
     .580000000000D+02  .579062500000D+02  .460662045566D-08  .243425582670D+01
     .279955565929D-05  .122054456733D-01  .860169529915D-05  .515358469963D+04
     .122400000000D+06  .191852450371D-06 -.161325165043D+01  .162050127983D-06
     .953649723430D+00  .207000000000D+03 -.741260851164D+00 -.789247161027D-08
    -.261796619166D-09  .100000000000D+01  .165200000000D+04  .000000000000D+00
     .240000000000D+01  .000000000000D+00 -.279396772385D-08  .580000000000D+02
     .115206000000D+06  .400000000000D+01
 7 11  9  5  9 59 44.0  .252868048847D-04  .181898940355D-11  .000000000000D+00
     .200000000000D+01 -.196875000000D+02  .449768734673D-08  .172233226301D+01
    -.828877091408D-06  .494927179534D-02  .358186662197D-05  .515364290237D+04
     .122384000000D+06  .502914190292D-07  .404396012900D+00  .137835741043D-06
     .975216570850D+00  .319156250000D+03 -.309206353441D+01 -.832784688825D-08
    -.136434254463D-09  .100000000000D+01  .165200000000D+04  .000000000000D+00
     .240000000000D+01  .000000000000D+00 -.107102096081D-07  .200000000000D+01
     .118236000000D+06  .400000000000D+01
15 11  9  5  9 59 44.0 -.107601750642D-03  .159161572810D-11  .000000000000D+00
     .400000000000D+01  .812500000000D+02  .490020411317D-08 -.240044317438D+01
     .420212745667D-05  .360781687777D-02  .680424273014D-05  .515367514420D+04
     .122384000000D+06 -.108033418655D-06 -.672633326221D+00 -.763684511185D-07
     .948722205722D+00  .245125000000D+03 -.759117890479D-01 -.824177187431D-08
     .775032283206D-10  .100000000000D+01  .165200000000D+04  .000000000000D+00
     .240000000000D+01  .000000000000D+00 -.102445483208D-07  .400000000000D+01
     .120876000000D+06  .400000000000D+01
17 11  9  5  9 59 44.0  .176405999810D-03 -.159161572810D-11  .000000000000D+00
     .500000000000D+01 -.290000000000D+02  .439304013061D-08 -.177869912127D+01
    -.145658850670D-05  .656794244424D-02  .884570181370D-05  .515357127571D+04
     .122384000000D+06  .102445483208D-06  .252002053139D+01 -.152736902237D-06
     .961849449485D+00  .212250000000D+03 -.240361527524D+01 -.776175187955D-08
     .307869966877D-09  .100000000000D+01  .165200000000D+04  .000000000000D+00
     .240000000000D+01  .000000000000D+00 -.107102096081D-07  .500000000000D+01
     .121266000000D+06  .400000000000D+01
 7 11  9  5 11 59 44.0  .252998434007D-04  .181898940355D-11  .000000000000D+00
     .700000000000D+01 -.166562500000D+02  .442554148442D-08  .277254157827D+01
    -.758096575737D-06  .494977482595D-02  .389106571674D-05  .515364223099D+04
     .129584000000D+06 -.176951289177D-06  .404335578291D+00 -.316649675369D-07
     .975216869286D+00  .314093750000D+03 -.309207311360D+01 -.814105339327D-08
     .346443002170D-10  .100000000000D+01  .165200000000D+04  .000000000000D+00
     .240000000000D+01  .000000000000D+00 -.107102096081D-07  .700000000000D+01
     .122406000000D+06  .400000000000D+01
15 11  9  5 11 59 44.0 -.107590109110D-03  .159161572810D-11  .000000000000D+00
     .500000000000D+01  .916250000000D+02  .480448584041D-08 -.134994058647D+01
     .447407364845D-05  .360708788503D-02  .673346221447D-05  .515367763519D+04
     .129584000000D+06  .372529029846D-08 -.672693324880D+00 -.856816768646D-07
     .948722943033D+00  .241875000000D+03 -.762328937146D-01 -.829248827256D-08
     .147506144223D-09  .100000000000D+01  .165200000000D+04  .000000000000D+00
     .240000000000D+01  .000000000000D+00 -.102445483208D-07  .500000000000D+01
     .122406000000D+06  .400000000000D+01
17 11  9  5 11 59 44.0  .176394823939D-03 -.159161572810D-11  .000000000000D+00
     .600000000000D+01 -.271562500000D+02  .459804867004D-08 -.728483609089D+00
    -.149197876453D-05  .656800076831D-02  .874884426594D-05  .515357097816D+04
     .129584000000D+06  .100582838058D-06  .251996464939D+01  .178813934326D-06
     .961849987838D+00  .213250000000D+03 -.240358779286D+01 -.805390690612D-08
     .172150027883D-09  .100000000000D+01  .165200000000D+04  .000000000000D+00
     .240000000000D+01  .000000000000D+00 -.107102096081D-07  .600000000000D+01
     .122406000000D+06  .400000000000D+01
 2 11  9  5 12  0  0.0  .354557298124D-03  .193267624127D-11  .000000000000D+00
     .900000000000D+02  .181250000000D+01  .504878173060D-08 -.205376807623D+01
     .113621354103D-06  .104652250884D-01  .737793743610D-05  .515355854225D+04
     .129600000000D+06 -.372529029846D-07 -.276468560725D+01 -.132247805595D-06
     .939164533275D+00  .225718750000D+03 -.293675992583D+01 -.813783897366D-08
     .103932900651D-09  .100000000000D+01  .165200000000D+04  .000000000000D+00
     .240000000000D+01  .000000000000D+00 -.172294676304D-07  .900000000000D+02
     .122406000000D+06  .400000000000D+01
 3 11  9  5 12  0  0.0  .764217227697D-03  .500222085975D-11  .000000000000D+00
     .740000000000D+02 -.269062500000D+02  .509378360510D-08 -.185253822312D+01
    -.136531889439D-05  .147433383390D-01  .832602381706D-05  .515367206001D+04
     .129600000000D+06  .286847352982D-06  .235927076992D+01 -.540167093277D-07
     .929522342199D+00  .200000000000D+03  .112950043337D+01 -.808962267954D-08
     .217866217860D-09  .100000000000D+01  .165200000000D+04  .000000000000D+00
     .340000000000D+01  .000000000000D+00 -.465661287308D-08  .740000000000D+02
     .122406000000D+06  .400000000000D+01
 4 11  9  5 12  0  0.0  .222281552851D-03  .111413100967D-10  .000000000000D+00
     .800000000000D+02  .403125000000D+01  .516700094061D-08  .119981528510D+01
     .365078449249D-06  .976205500774D-02  .769086182117D-05  .515369392776D+04
     .129600000000D+06 -.139698386192D-06 -.274745913244D+01  .204890966415D-07
     .938238561722D+00  .223937500000D+03  .758402282156D+00 -.834213319762D-08
    -.181078971237D-09  .100000000000D+01  .165200000000D+04  .000000000000D+00
     .240000000000D+01  .000000000000D+00 -.651925802231D-08  .800000000000D+02
     .122406000000D+06  .400000000000D+01
 5 11  9  5 12  0  0.0 -.213958323002D-03 -.534328137292D-11  .000000000000D+00
     .730000000000D+02  .414375000000D+02  .457840499466D-08  .374261448234D-01
     .224262475967D-05  .238488509785D-02  .916048884392D-05  .515374722290D+04
     .129600000000D+06  .335276126862D-07 -.170236099255D+01 -.447034835815D-07
     .952940625093D+00  .196625000000D+03  .140966528645D+00 -.804033491222D-08
    -.239652839646D-09  .100000000000D+01  .165200000000D+04  .000000000000D+00
     .240000000000D+01  .000000000000D+00 -.102445483208D-07  .730000000000D+02
     .122406000000D+06  .400000000000D+01
 6 11  9  5 12  0  0.0 -.783149152994D-04  .943600753089D-11  .000000000000D+00
     .800000000000D+02 -.305625000000D+02  .506163940903D-08  .142948946489D+00
    -.171922147274D-05  .667949928902D-02  .865943729877D-05  .515370711708D+04
     .129600000000D+06  .409781932831D-07  .243373365564D+01 -.126659870148D-06
     .936624809474D+00  .203500000000D+03 -.694986653029D+00 -.834606193269D-08
     .133576992589D-09  .100000000000D+01  .165200000000D+04  .000000000000D+00
     .240000000000D+01  .000000000000D+00 -.465661287308D-08  .800000000000D+02
     .122406000000D+06  .400000000000D+01
 8 11  9  5 12  0  0.0  .906735658646D-05  .113686837722D-12  .000000000000D+00
     .770000000000D+02 -.288125000000D+02  .397123684653D-08  .228739945528D+01
    -.137835741043D-05  .120449666865D-01  .428594648838D-05  .515375510025D+04
     .129600000000D+06 -.281259417534D-06  .481955669445D+00  .236555933952D-06
     .997018757902D+00  .319531250000D+03 -.304319513048D+01 -.795818863336D-08
    -.446447167745D-10  .100000000000D+01  .165200000000D+04  .000000000000D+00
     .340000000000D+01  .000000000000D+00 -.419095158577D-08  .770000000000D+02
     .122406000000D+06  .400000000000D+01
